ONEWEB-0156             
1 48052U 21025L   23344.88322383  .00000157  00000+0  39618-3 0  9994
2 48052  87.8986 143.1681 0001511  92.4574 267.6728 13.13472309132894
ONEWEB-0161             
1 48053U 21025M   23344.93242746 -.00000228  00000+0 -65901-3 0  9990
2 48053  87.8976 143.1637 0001699  95.6127 264.5196 13.13469712132834
ONEWEB-0158             
1 48054U 21025N   23344.89436362  .00000315  00000+0  82638-3 0  9996
2 48054  87.8987 143.1642 0001356  94.8205 265.3079 13.13471437132950
ONEWEB-0157             
1 48055U 21025P   23344.91814712  .00000042  00000+0  80856-4 0  9997
2 48055  87.8982 143.1760 0001659  88.1868 271.9451 13.13468257132890
ONEWEB-0162             
1 48056U 21025Q   23344.88165500  .00000060  00000+0  12999-3 0  9990
2 48056  87.8981 143.1819 0001553  94.8873 265.2434 13.13467795132868
ONEWEB-0155             
1 48057U 21025R   23344.90227690  .00000290  00000+0  75977-3 0  9993
2 48057  87.8985 143.1853 0001495  94.2260 265.9040 13.13471294133006
ONEWEB-0149             
1 48058U 21025S   23344.92290163 -.00000137  00000+0 -40948-3 0  9993
2 48058  87.8980 143.1785 0001656  75.8416 284.2897 13.13476375132810
ONEWEB-0148             
1 48059U 21025T   23344.88801500  .00000275  00000+0  71928-3 0  9995
2 48059  87.8975 143.1902 0002035  77.3623 282.7733 13.13462752132934
